     3.00           N                   E                   RINEX VERSION / TYPE
BRD_USR             ESA                 20190102 184219  UTCPGM / RUN BY / DATE
 GAL   3.7750E+01  2.3438E-02  1.0071E-03  0.0000E+00       IONOSPHERIC CORR
GAUT  9.3132257462E-10-8.881784197E-16 259200 2034 GSTB   0 TIME SYSTEM CORR
GPGA -2.2700987756E-09-1.154631946E-14 345600 2034 GSTB   0 TIME SYSTEM CORR
                                                            END OF HEADER
E08 2019 01 02 16 40 00 6.431254732888E-03-7.460698725481E-12 0.000000000000E+00
     2.000000000000E+01-2.134375000000E+01 3.708368754158E-09-2.940975739742E+00
    -1.085922122002E-06 2.413110341877E-04 4.936009645462E-06 5.440606863022E+03
     3.192000000000E+05-7.450580596924E-09 1.358004025610E+00-7.450580596924E-08
     9.581375450175E-01 2.341250000000E+02 4.864079026244E-01-5.813099281775E-09
    -1.642925577302E-10 2.580000000000E+02 2.034000000000E+03 0.000000000000E+00
     3.120000000000E+00 0.000000000000E+00-8.614733815193E-09 0.000000000000E+00
     3.199000000000E+05 0.000000000000E+00 0.000000000000E+00 0.000000000000E+00
E09 2019 01 02 16 40 00 6.570099503733E-03-1.132605120802E-11 0.000000000000E+00
     2.000000000000E+01-1.846875000000E+01 3.761942414287E-09-2.489777759066E-01
    -8.139759302139E-07 2.607995411381E-04 4.943460226059E-06 5.440604164124E+03
     3.192000000000E+05 2.980232238770E-08 1.357999887015E+00-2.235174179077E-08
     9.581680980616E-01 2.360312500000E+02 1.493549565020E-01-5.762740041254E-09
    -1.239337337660E-10 2.580000000000E+02 2.034000000000E+03 0.000000000000E+00
     3.120000000000E+00 0.000000000000E+00-3.259629011154E-09 0.000000000000E+00
     3.199000000000E+05 0.000000000000E+00 0.000000000000E+00 0.000000000000E+00
E12 2019 01 02 16 40 00 5.854330374859E-03 8.432721188001E-11 0.000000000000E+00
     2.000000000000E+01-1.723750000000E+02 2.491889511486E-09-2.570345467766E+00
    -7.888302206993E-06 3.650098806247E-04 1.041032373905E-05 5.440610088348E+03
     3.192000000000E+05 1.117587089539E-08-7.386304791071E-01 2.048909664154E-08
     9.820559761961E-01 1.249062500000E+02-9.129797420937E-01-5.330936340611E-09
     1.928651764659E-11 2.580000000000E+02 2.034000000000E+03 0.000000000000E+00
     3.120000000000E+00 0.000000000000E+00-1.559965312481E-08 0.000000000000E+00
     3.199000000000E+05 0.000000000000E+00 0.000000000000E+00 0.000000000000E+00
E13 2019 01 02 16 40 00 3.812492359430E-04 4.547473508865E-13 0.000000000000E+00
     2.000000000000E+01-1.370625000000E+02 2.527248127171E-09 4.891486079629E-01
    -6.431713700294E-06 3.296706127003E-04 9.708106517792E-06 5.440602176666E+03
     3.192000000000E+05 9.313225746155E-09-7.439210930824E-01-2.793967723846E-08
     9.852839210301E-01 1.418437500000E+02-1.628267038669E+00-5.302720879609E-09
    -3.785871982478E-11 2.580000000000E+02 2.034000000000E+03 0.000000000000E+00
     3.120000000000E+00 5.600000000000E+01-4.190951585770E-09 0.000000000000E+00
     3.199000000000E+05 0.000000000000E+00 0.000000000000E+00 0.000000000000E+00
E21 2019 01 02 16 40 00-5.124529125169E-04-1.918465386552E-12 0.000000000000E+00
     2.000000000000E+01 1.768125000000E+02 2.689754896231E-09 6.757448812924E-01
     8.188188076019E-06 4.836847074330E-05 5.003064870834E-06 5.440632209778E+03
     3.192000000000E+05 7.636845111847E-08-2.826940220699E+00-3.725290298462E-09
     9.898813181073E-01 2.436250000000E+02-4.906958515661E-01-5.523444359342E-09
     1.682212928064E-10 2.580000000000E+02 2.034000000000E+03 0.000000000000E+00
     3.120000000000E+00 0.000000000000E+00-2.328306436539E-09 0.000000000000E+00
     3.199000000000E+05 0.000000000000E+00 0.000000000000E+00 0.000000000000E+00
E24 2019 01 02 16 40 00 6.306581664830E-03-1.966782292584E-11 0.000000000000E+00
     2.000000000000E+01 1.882187500000E+02 2.681540268344E-09-2.622871257596E+00
     8.756294846535E-06 4.595339996740E-04 6.485730409622E-06 5.440624628067E+03
     3.192000000000E+05 2.235174179077E-08-2.820856596868E+00-3.539025783539E-08
     9.878828696068E-01 2.134375000000E+02 4.304201391036E-01-5.551302662610E-09
     2.196520065306E-10 2.580000000000E+02 2.034000000000E+03 0.000000000000E+00
     3.120000000000E+00 0.000000000000E+00 4.260800778866E-08 0.000000000000E+00
     3.199000000000E+05 0.000000000000E+00 0.000000000000E+00 0.000000000000E+00
E25 2019 01 02 16 40 00 1.935712527484E-03-1.131184035330E-11 0.000000000000E+00
     2.000000000000E+01 1.729062500000E+02 2.695469419978E-09-1.575251111303E+00
     8.007511496544E-06 2.232209080830E-04 6.461516022682E-06 5.440631286621E+03
     3.192000000000E+05-3.725290298462E-08-2.826948372078E+00-4.284083843231E-08
     9.898862934917E-01 2.132812500000E+02-1.379765359211E+00-5.507015103569E-09
     1.521491947675E-10 2.580000000000E+02 2.034000000000E+03 0.000000000000E+00
     3.120000000000E+00 0.000000000000E+00-1.629814505577E-09 0.000000000000E+00
     3.199000000000E+05 0.000000000000E+00 0.000000000000E+00 0.000000000000E+00
E27 2019 01 02 16 40 00 5.577683914453E-04-7.759126674500E-12 0.000000000000E+00
     2.000000000000E+01 1.752500000000E+02 2.672968482723E-09 1.929735416837E+00
     8.216127753258E-06 2.116718096659E-04 5.198642611504E-06 5.440631568909E+03
     3.192000000000E+05 2.048909664154E-08-2.826924023270E+00 5.215406417847E-08
     9.898541049052E-01 2.410312500000E+02-9.578740368985E-01-5.475942380694E-09
     1.471489864888E-10 2.580000000000E+02 2.034000000000E+03 0.000000000000E+00
     3.120000000000E+00 0.000000000000E+00-2.561137080193E-09 0.000000000000E+00
     3.199000000000E+05 0.000000000000E+00 0.000000000000E+00 0.000000000000E+00
E30 2019 01 02 16 40 00 5.220398888923E-03-3.042543994525E-11 0.000000000000E+00
     2.000000000000E+01 1.705625000000E+02 2.591179361593E-09 1.247451414616E+00
     7.918104529381E-06 2.901809057221E-04 6.018206477165E-06 5.440625097275E+03
     3.192000000000E+05-7.823109626770E-08-2.820912345751E+00 5.401670932770E-08
     9.878680283029E-01 2.247500000000E+02 4.895583435215E-01-5.445941131022E-09
     1.739358165535E-10 2.580000000000E+02 2.034000000000E+03 0.000000000000E+00
     3.120000000000E+00 0.000000000000E+00-2.793967723846E-09 0.000000000000E+00
     3.199000000000E+05 0.000000000000E+00 0.000000000000E+00 0.000000000000E+00
E15 2019 01 02 16 30 00 9.240501676686E-04-9.805489753489E-13 0.000000000000E+00
     1.900000000000E+01-1.490312500000E+02 2.423315226520E-09 1.265891085925E+00
    -6.865710020065E-06 3.802628489211E-04 9.128823876381E-06 5.440606300354E+03
     3.186000000000E+05 3.725290298462E-09-7.439296687082E-01-1.303851604462E-08
     9.852417743603E-01 1.546562500000E+02-1.697216929315E+00-5.305935299217E-09
    -5.000208278745E-12 5.210000000000E+02 2.034000000000E+03 0.000000000000E+00
     3.120000000000E+00 4.550000000000E+02 1.862645149231E-09 1.629814505577E-09
     3.199450000000E+05 0.000000000000E+00 0.000000000000E+00 0.000000000000E+00
E15 2019 01 02 16 30 00 9.240500512533E-04-9.805489753489E-13 0.000000000000E+00
     1.900000000000E+01-1.490312500000E+02 2.423315226520E-09 1.265891085925E+00
    -6.865710020065E-06 3.802628489211E-04 9.128823876381E-06 5.440606300354E+03
     3.186000000000E+05 3.725290298462E-09-7.439296687082E-01-1.303851604462E-08
     9.852417743603E-01 1.546562500000E+02-1.697216929315E+00-5.305935299217E-09
    -5.000208278745E-12 2.580000000000E+02 2.034000000000E+03 0.000000000000E+00
     3.120000000000E+00 5.600000000000E+01 1.862645149231E-09 0.000000000000E+00
     3.199500000000E+05 0.000000000000E+00 0.000000000000E+00 0.000000000000E+00
E05 2019 01 02 16 40 00 1.319033326581E-04-6.508571459563E-12 0.000000000000E+00
     2.000000000000E+01-2.140625000000E+01 3.879804466572E-09-2.361893602098E+00
    -9.592622518539E-07 1.521484227851E-04 4.548579454422E-06 5.440604738235E+03
     3.192000000000E+05-1.117587089539E-08 1.366644641526E+00-1.862645149231E-09
     9.521675314053E-01 2.408125000000E+02 1.478533044482E+00-5.869173046044E-09
    -1.146476326769E-10 5.210000000000E+02 2.034000000000E+03 0.000000000000E+00
     3.120000000000E+00 0.000000000000E+00-1.862645149231E-09-1.862645149231E-09
     3.200350000000E+05 0.000000000000E+00 0.000000000000E+00 0.000000000000E+00
E25 2019 01 02 16 40 00 1.935712527484E-03-1.131184035330E-11 0.000000000000E+00
     2.000000000000E+01 1.729062500000E+02 2.695469419978E-09-1.575251111303E+00
     8.007511496544E-06 2.232209080830E-04 6.461516022682E-06 5.440631286621E+03
     3.192000000000E+05-3.725290298462E-08-2.826948372078E+00-4.284083843231E-08
     9.898862934917E-01 2.132812500000E+02-1.379765359211E+00-5.507015103569E-09
     1.521491947675E-10 5.210000000000E+02 2.034000000000E+03 0.000000000000E+00
     3.120000000000E+00 0.000000000000E+00-1.629814505577E-09-1.862645149231E-09
     3.200350000000E+05 0.000000000000E+00 0.000000000000E+00 0.000000000000E+00
E04 2019 01 02 16 40 00-1.918160123751E-04-7.830180948076E-12 0.000000000000E+00
     2.000000000000E+01-2.065625000000E+01 3.802301238252E-09-1.093971154941E+00
    -1.015141606331E-06 8.281285408884E-05 5.045905709267E-06 5.440603422165E+03
     3.192000000000E+05 2.235174179077E-08 1.366711613916E+00 0.000000000000E+00
     9.521983536263E-01 2.296875000000E+02 1.783816114667E+00-5.788098240382E-09
    -1.857220217820E-10 5.210000000000E+02 2.034000000000E+03 0.000000000000E+00
     3.120000000000E+00 0.000000000000E+00-8.149072527885E-09-8.847564458847E-09
     3.201250000000E+05 0.000000000000E+00 0.000000000000E+00 0.000000000000E+00
